{"type": "FeatureCollection", "features": [ {"type": "Feature", "properties": {"norad_id": 60453, "name": "LEGION 4", "group": "resource", "lat": -24.736179644326327, "lon": -116.30436940547315, "alt_km": 522.1772154140717, "timestamp": "2025-12-13T18:50:04.086389+00:00", "meta": {"OBJECT_NAME": "LEGION 4", "OBJECT_ID": "2024-146B", "EPOCH": "2025-12-13T06:48:45.885888", "MEAN_MOTION": 15.15835188, "ECCENTRICITY": 0.00094331, "INCLINATION": 45.0393, "RA_OF_ASC_NODE": 38.9677, "ARG_OF_PERICENTER": 313.9136, "MEAN_ANOMALY": 46.0964, "EPHEMERIS_TYPE": 0, "CLASSIFICATION_TYPE": "U", "NORAD_CAT_ID": 60453, "ELEMENT_SET_NO": 999, "REV_AT_EPOCH": 7266, "BSTAR": 0.0004458199, "MEAN_MOTION_DOT": 8.421e-05, "MEAN_MOTION_DDOT": 0}, "tle": {"line1": "1 60453U 24146B   25347.28386442  .00008421  00000+0  44582-3 0  9993", "line2": "2 60453  45.0393  38.9677 0009433 313.9136  46.0964 15.15835188 72664"}}, "geometry": {"type": "Point", "coordinates": [-116.30436940547315, -24.736179644326327]}}, {"type": "Feature", "properties": {"norad_id": 60989, "name": "SENTINEL-2C", "group": "resource", "lat": -16.584383450845767, "lon": 62.82564723996677, "alt_km": 794.1411381238568, "timestamp": "2025-12-13T18:50:04.086400+00:00", "meta": {"OBJECT_NAME": "SENTINEL-2C", "OBJECT_ID": "2024-157A", "EPOCH": "2025-12-13T05:29:10.051584", "MEAN_MOTION": 14.30817895, "ECCENTRICITY": 0.00011925, "INCLINATION": 98.5682, "RA_OF_ASC_NODE": 59.7041, "ARG_OF_PERICENTER": 97.29, "MEAN_ANOMALY": 262.8418, "EPHEMERIS_TYPE": 0, "CLASSIFICATION_TYPE": "U", "NORAD_CAT_ID": 60989, "ELEMENT_SET_NO": 999, "REV_AT_EPOCH": 6639, "BSTAR": 0.00010551457, "MEAN_MOTION_DOT": 2.33e-06, "MEAN_MOTION_DDOT": 0}, "tle": {"line1": "1 60989U 24157A   25347.22858856  .00000233  00000+0  10551-3 0  9998", "line2": "2 60989  98.5682  59.7041 0001192  97.2900 262.8418 14.30817895 66399"}}, "geometry": {"type": "Point", "coordinates": [62.82564723996677, -16.584383450845767]}}, {"type": "Feature", "properties": {"norad_id": 61735, "name": "IONOSFERA-M 1", "group": "resource", "lat": -38.84281723603493, "lon": 30.508646307252143, "alt_km": 823.2288025988619, "timestamp": "2025-12-13T18:50:04.086410+00:00", "meta": {"OBJECT_NAME": "IONOSFERA-M 1", "OBJECT_ID": "2024-199A", "EPOCH": "2025-12-13T07:40:46.767936", "MEAN_MOTION": 14.22714261, "ECCENTRICITY": 9.35e-05, "INCLINATION": 98.7403, "RA_OF_ASC_NODE": 217.1637, "ARG_OF_PERICENTER": 20.717, "MEAN_ANOMALY": 339.4046, "EPHEMERIS_TYPE": 0, "CLASSIFICATION_TYPE": "U", "NORAD_CAT_ID": 61735, "ELEMENT_SET_NO": 999, "REV_AT_EPOCH": 10127, "BSTAR": 6.871089e-05, "MEAN_MOTION_DOT": 1.1e-06, "MEAN_MOTION_DDOT": 0}, "tle": {"line1": "1 61735U 24199A   25347.31998574  .00000110  00000+0  68711-4 0  9992", "line2": "2 61735  98.7403 217.1637 0000935  20.7170 339.4046 14.22714261101276"}}, "geometry": {"type": "Point", "coordinates": [30.508646307252143, -38.84281723603493]}}, {"type": "Feature", "properties": {"norad_id": 61736, "name": "IONOSFERA-M 2", "group": "resource", "lat": 41.27199033908481, "lon": -150.22228756720423, "alt_km": 812.3531707762304, "timestamp": "2025-12-13T18:50:04.086421+00:00", "meta": {"OBJECT_NAME": "IONOSFERA-M 2", "OBJECT_ID": "2024-199B", "EPOCH": "2025-12-13T06:49:23.823264", "MEAN_MOTION": 14.22716408, "ECCENTRICITY": 0.00016621, "INCLINATION": 98.7402, "RA_OF_ASC_NODE": 217.0409, "ARG_OF_PERICENTER": 109.7408, "MEAN_ANOMALY": 250.3949, "EPHEMERIS_TYPE": 0, "CLASSIFICATION_TYPE": "U", "NORAD_CAT_ID": 61736, "ELEMENT_SET_NO": 999, "REV_AT_EPOCH": 10439, "BSTAR": 6.9091721e-05, "MEAN_MOTION_DOT": 1.11e-06, "MEAN_MOTION_DDOT": 0}, "tle": {"line1": "1 61736U 24199B   25347.28430351  .00000111  00000+0  69092-4 0  9997", "line2": "2 61736  98.7402 217.0409 0001662 109.7408 250.3949 14.22716408104396"}}, "geometry": {"type": "Point", "coordinates": [-150.22228756720423, 41.27199033908481]}}, {"type": "Feature", "properties": {"norad_id": 63772, "name": "BIOMASS", "group": "resource", "lat": 41.978174694821156, "lon": 165.4450460757885, "alt_km": 664.8443529428187, "timestamp": "2025-12-13T18:50:04.086444+00:00", "meta": {"OBJECT_NAME": "BIOMASS", "OBJECT_ID": "2025-090A", "EPOCH": "2025-12-13T05:33:02.031264", "MEAN_MOTION": 14.67542273, "ECCENTRICITY": 0.00011696, "INCLINATION": 98.07, "RA_OF_ASC_NODE": 172.2338, "ARG_OF_PERICENTER": 79.5708, "MEAN_ANOMALY": 280.5629, "EPHEMERIS_TYPE": 0, "CLASSIFICATION_TYPE": "U", "NORAD_CAT_ID": 63772, "ELEMENT_SET_NO": 999, "REV_AT_EPOCH": 3341, "BSTAR": 0.00038300186, "MEAN_MOTION_DOT": 2.125e-05, "MEAN_MOTION_DDOT": 0}, "tle": {"line1": "1 63772U 25090A   25347.23127351  .00002125  00000+0  38300-3 0  9992", "line2": "2 63772  98.0700 172.2338 0001169  79.5708 280.5629 14.67542273 33414"}}, "geometry": {"type": "Point", "coordinates": [165.4450460757885, 41.978174694821156]}}, {"type": "Feature", "properties": {"norad_id": 64694, "name": "GOSAT-GW (IBUKI GW)", "group": "resource", "lat": -70.52984547337286, "lon": 79.70537509883975, "alt_km": 677.1748780596545, "timestamp": "2025-12-13T18:50:04.086454+00:00", "meta": {"OBJECT_NAME": "GOSAT-GW (IBUKI GW)", "OBJECT_ID": "2025-141A", "EPOCH": "2025-12-13T06:14:04.025184", "MEAN_MOTION": 14.67560112, "ECCENTRICITY": 0.00014914, "INCLINATION": 98.0422, "RA_OF_ASC_NODE": 282.7634, "ARG_OF_PERICENTER": 85.3866, "MEAN_ANOMALY": 274.7509, "EPHEMERIS_TYPE": 0, "CLASSIFICATION_TYPE": "U", "NORAD_CAT_ID": 64694, "ELEMENT_SET_NO": 999, "REV_AT_EPOCH": 2457, "BSTAR": 0.00034305138, "MEAN_MOTION_DOT": 1.899e-05, "MEAN_MOTION_DDOT": 0}, "tle": {"line1": "1 64694U 25141A   25347.25976881  .00001899  00000+0  34305-3 0  9993", "line2": "2 64694  98.0422 282.7634 0001491  85.3866 274.7509 14.67560112 24574"}}, "geometry": {"type": "Point", "coordinates": [79.70537509883975, -70.52984547337286]}}, {"type": "Feature", "properties": {"norad_id": 64876, "name": "IONOSFERA-M 3", "group": "resource", "lat": 77.87877367760093, "lon": -95.03278415118635, "alt_km": 811.7047616335167, "timestamp": "2025-12-13T18:50:04.086465+00:00", "meta": {"OBJECT_NAME": "IONOSFERA-M 3", "OBJECT_ID": "2025-155A", "EPOCH": "2025-12-13T06:37:38.557344", "MEAN_MOTION": 14.21441229, "ECCENTRICITY": 0.00022195, "INCLINATION": 98.5783, "RA_OF_ASC_NODE": 309.127, "ARG_OF_PERICENTER": 59.2679, "MEAN_ANOMALY": 300.8717, "EPHEMERIS_TYPE": 0, "CLASSIFICATION_TYPE": "U", "NORAD_CAT_ID": 64876, "ELEMENT_SET_NO": 999, "REV_AT_EPOCH": 1999, "BSTAR": 8.6960294e-05, "MEAN_MOTION_DOT": 1.47e-06, "MEAN_MOTION_DDOT": 0}, "tle": {"line1": "1 64876U 25155A   25347.27614071  .00000147  00000+0  86960-4 0  9992", "line2": "2 64876  98.5783 309.1270 0002219  59.2679 300.8717 14.21441229 19991"}}, "geometry": {"type": "Point", "coordinates": [-95.03278415118635, 77.87877367760093]}}, {"type": "Feature", "properties": {"norad_id": 64877, "name": "IONOSFERA-M 4", "group": "resource", "lat": -78.34580015684708, "lon": 82.50153917332024, "alt_km": 828.8703750902087, "timestamp": "2025-12-13T18:50:04.086476+00:00", "meta": {"OBJECT_NAME": "IONOSFERA-M 4", "OBJECT_ID": "2025-155B", "EPOCH": "2025-12-13T07:28:08.226048", "MEAN_MOTION": 14.21442454, "ECCENTRICITY": 0.00015872, "INCLINATION": 98.5782, "RA_OF_ASC_NODE": 309.0807, "ARG_OF_PERICENTER": 63.0295, "MEAN_ANOMALY": 297.1044, "EPHEMERIS_TYPE": 0, "CLASSIFICATION_TYPE": "U", "NORAD_CAT_ID": 64877, "ELEMENT_SET_NO": 999, "REV_AT_EPOCH": 1999, "BSTAR": 9.229153e-05, "MEAN_MOTION_DOT": 1.59e-06, "MEAN_MOTION_DDOT": 0}, "tle": {"line1": "1 64877U 25155B   25347.31120632  .00000159  00000+0  92292-4 0  9991", "line2": "2 64877  98.5782 309.0807 0001587  63.0295 297.1044 14.21442454 19992"}}, "geometry": {"type": "Point", "coordinates": [82.50153917332024, -78.34580015684708]}}, {"type": "Feature", "properties": {"norad_id": 64899, "name": "MICROCARB", "group": "resource", "lat": -65.71663379657942, "lon": -135.05501630438195, "alt_km": 664.9363029468113, "timestamp": "2025-12-13T18:50:04.086486+00:00", "meta": {"OBJECT_NAME": "MICROCARB", "OBJECT_ID": "2025-156A", "EPOCH": "2025-12-13T04:39:59.514048", "MEAN_MOTION": 14.72058192, "ECCENTRICITY": 0.00171655, "INCLINATION": 98.0025, "RA_OF_ASC_NODE": 62.5326, "ARG_OF_PERICENTER": 143.354, "MEAN_ANOMALY": 216.8845, "EPHEMERIS_TYPE": 0, "CLASSIFICATION_TYPE": "U", "NORAD_CAT_ID": 64899, "ELEMENT_SET_NO": 999, "REV_AT_EPOCH": 2060, "BSTAR": 0.00018626373, "MEAN_MOTION_DOT": 1.123e-05, "MEAN_MOTION_DDOT": 0}, "tle": {"line1": "1 64899U 25156A   25347.19443882  .00001123  00000+0  18626-3 0  9997", "line2": "2 64899  98.0025  62.5326 0017165 143.3540 216.8845 14.72058192 20607"}}, "geometry": {"type": "Point", "coordinates": [-135.05501630438195, -65.71663379657942]}}, {"type": "Feature", "properties": {"norad_id": 64900, "name": "CO3D 3", "group": "resource", "lat": 69.56417156123233, "lon": -95.31703022838245, "alt_km": 497.1574803675776, "timestamp": "2025-12-13T18:50:04.086497+00:00", "meta": {"OBJECT_NAME": "CO3D 3", "OBJECT_ID": "2025-156B", "EPOCH": "2025-12-12T04:26:31.994592", "MEAN_MOTION": 15.20160723, "ECCENTRICITY": 0.00054722, "INCLINATION": 97.4437, "RA_OF_ASC_NODE": 62.5626, "ARG_OF_PERICENTER": 185.32, "MEAN_ANOMALY": 174.7978, "EPHEMERIS_TYPE": 0, "CLASSIFICATION_TYPE": "U", "NORAD_CAT_ID": 64900, "ELEMENT_SET_NO": 999, "REV_AT_EPOCH": 2112, "BSTAR": 0.0011050076, "MEAN_MOTION_DOT": 0.0002391, "MEAN_MOTION_DDOT": 0}, "tle": {"line1": "1 64900U 25156B   25346.18509253  .00023910  00000+0  11050-2 0  9994", "line2": "2 64900  97.4437  62.5626 0005472 185.3200 174.7978 15.20160723 21125"}}, "geometry": {"type": "Point", "coordinates": [-95.31703022838245, 69.56417156123233]}}]}